ORBCOMM FM115           
1 41186U 15081H   24298.56587913  .00003152  00000+0  66407-3 0  9990
2 41186  46.9980  79.4298 0000499 275.4837  84.5993 14.61478729473297
ORBCOMM FM108           
1 41187U 15081J   24298.26723683  .00001659  00000+0  40024-3 0  9991
2 41187  47.0035 140.4837 0002525 281.1719  78.8883 14.57271450472373
ORBCOMM FM117           
1 41188U 15081K   24298.57625579  .00001878  00000+0  44803-3 0  9993
2 41188  46.9994 137.8670 0002914 300.2899  59.7698 14.57274717472466
ORBCOMM FM116           
1 41189U 15081L   24298.49729698  .00002832  00000+0  65668-3 0  9995
2 41189  47.0008 228.0757 0002008  30.1958 329.9043 14.57282366471265
