<?xml version="1.0" encoding="UTF-8"?>
<ndm xmlns:xsi="http://www.w3.org/2001/XMLSchema-instance" xsi:noNamespaceSchemaLocation="https://sanaregistry.org/r/ndmxml_unqualified/ndmxml-2.0.0-master-2.0.xsd">
<omm id="CCSDS_OMM_VERS" version="2.0">
<header><CREATION_DATE/><ORIGINATOR/></header><body><segment><metadata><OBJECT_NAME>ORBCOMM FM115</OBJECT_NAME><OBJECT_ID>2015-081H</OBJECT_ID><CENTER_NAME>EARTH</CENTER_NAME><REF_FRAME>TEME</REF_FRAME><TIME_SYSTEM>UTC</TIME_SYSTEM><MEAN_ELEMENT_THEORY>SGP4</MEAN_ELEMENT_THEORY></metadata><data><meanElements><EPOCH>2024-10-24T13:34:51.956832</EPOCH><MEAN_MOTION>14.61478729</MEAN_MOTION><ECCENTRICITY>.0000499</ECCENTRICITY><INCLINATION>46.9980</INCLINATION><RA_OF_ASC_NODE>79.4298</RA_OF_ASC_NODE><ARG_OF_PERICENTER>275.4837</ARG_OF_PERICENTER><MEAN_ANOMALY>84.5993</MEAN_ANOMALY></meanElements><tleParameters><EPHEMERIS_TYPE>0</EPHEMERIS_TYPE><CLASSIFICATION_TYPE>U</CLASSIFICATION_TYPE><NORAD_CAT_ID>41186</NORAD_CAT_ID><ELEMENT_SET_NO>999</ELEMENT_SET_NO><REV_AT_EPOCH>47329</REV_AT_EPOCH><BSTAR>.66407E-3</BSTAR><MEAN_MOTION_DOT>.3152E-4</MEAN_MOTION_DOT><MEAN_MOTION_DDOT>0</MEAN_MOTION_DDOT></tleParameters></data></segment></body></omm>
<omm id="CCSDS_OMM_VERS" version="2.0">
<header><CREATION_DATE/><ORIGINATOR/></header><body><segment><metadata><OBJECT_NAME>ORBCOMM FM108</OBJECT_NAME><OBJECT_ID>2015-081J</OBJECT_ID><CENTER_NAME>EARTH</CENTER_NAME><REF_FRAME>TEME</REF_FRAME><TIME_SYSTEM>UTC</TIME_SYSTEM><MEAN_ELEMENT_THEORY>SGP4</MEAN_ELEMENT_THEORY></metadata><data><meanElements><EPOCH>2024-10-24T06:24:49.262112</EPOCH><MEAN_MOTION>14.57271450</MEAN_MOTION><ECCENTRICITY>.0002525</ECCENTRICITY><INCLINATION>47.0035</INCLINATION><RA_OF_ASC_NODE>140.4837</RA_OF_ASC_NODE><ARG_OF_PERICENTER>281.1719</ARG_OF_PERICENTER><MEAN_ANOMALY>78.8883</MEAN_ANOMALY></meanElements><tleParameters><EPHEMERIS_TYPE>0</EPHEMERIS_TYPE><CLASSIFICATION_TYPE>U</CLASSIFICATION_TYPE><NORAD_CAT_ID>41187</NORAD_CAT_ID><ELEMENT_SET_NO>999</ELEMENT_SET_NO><REV_AT_EPOCH>47237</REV_AT_EPOCH><BSTAR>.40024E-3</BSTAR><MEAN_MOTION_DOT>.1659E-4</MEAN_MOTION_DOT><MEAN_MOTION_DDOT>0</MEAN_MOTION_DDOT></tleParameters></data></segment></body></omm>
<omm id="CCSDS_OMM_VERS" version="2.0">
<header><CREATION_DATE/><ORIGINATOR/></header><body><segment><metadata><OBJECT_NAME>ORBCOMM FM117</OBJECT_NAME><OBJECT_ID>2015-081K</OBJECT_ID><CENTER_NAME>EARTH</CENTER_NAME><REF_FRAME>TEME</REF_FRAME><TIME_SYSTEM>UTC</TIME_SYSTEM><MEAN_ELEMENT_THEORY>SGP4</MEAN_ELEMENT_THEORY></metadata><data><meanElements><EPOCH>2024-10-24T13:49:48.500256</EPOCH><MEAN_MOTION>14.57274717</MEAN_MOTION><ECCENTRICITY>.0002914</ECCENTRICITY><INCLINATION>46.9994</INCLINATION><RA_OF_ASC_NODE>137.8670</RA_OF_ASC_NODE><ARG_OF_PERICENTER>300.2899</ARG_OF_PERICENTER><MEAN_ANOMALY>59.7698</MEAN_ANOMALY></meanElements><tleParameters><EPHEMERIS_TYPE>0</EPHEMERIS_TYPE><CLASSIFICATION_TYPE>U</CLASSIFICATION_TYPE><NORAD_CAT_ID>41188</NORAD_CAT_ID><ELEMENT_SET_NO>999</ELEMENT_SET_NO><REV_AT_EPOCH>47246</REV_AT_EPOCH><BSTAR>.44803E-3</BSTAR><MEAN_MOTION_DOT>.1878E-4</MEAN_MOTION_DOT><MEAN_MOTION_DDOT>0</MEAN_MOTION_DDOT></tleParameters></data></segment></body></omm>
<omm id="CCSDS_OMM_VERS" version="2.0">
<header><CREATION_DATE/><ORIGINATOR/></header><body><segment><metadata><OBJECT_NAME>ORBCOMM FM116</OBJECT_NAME><OBJECT_ID>2015-081L</OBJECT_ID><CENTER_NAME>EARTH</CENTER_NAME><REF_FRAME>TEME</REF_FRAME><TIME_SYSTEM>UTC</TIME_SYSTEM><MEAN_ELEMENT_THEORY>SGP4</MEAN_ELEMENT_THEORY></metadata><data><meanElements><EPOCH>2024-10-24T11:56:06.459072</EPOCH><MEAN_MOTION>14.57282366</MEAN_MOTION><ECCENTRICITY>.0002008</ECCENTRICITY><INCLINATION>47.0008</INCLINATION><RA_OF_ASC_NODE>228.0757</RA_OF_ASC_NODE><ARG_OF_PERICENTER>30.1958</ARG_OF_PERICENTER><MEAN_ANOMALY>329.9043</MEAN_ANOMALY></meanElements><tleParameters><EPHEMERIS_TYPE>0</EPHEMERIS_TYPE><CLASSIFICATION_TYPE>U</CLASSIFICATION_TYPE><NORAD_CAT_ID>41189</NORAD_CAT_ID><ELEMENT_SET_NO>999</ELEMENT_SET_NO><REV_AT_EPOCH>47126</REV_AT_EPOCH><BSTAR>.65668E-3</BSTAR><MEAN_MOTION_DOT>.2832E-4</MEAN_MOTION_DOT><MEAN_MOTION_DDOT>0</MEAN_MOTION_DDOT></tleParameters></data></segment></body></omm>
</ndm>
